#aV2013 11 20  0  0  0.00000000     288 DD+AD WGS84 FIT  NGA
## 1767 259200.00000000   300.00000000 56616 0.0000000000000
+   31     1  2  3  4  5  6  7  8  9 10 11 12 13 14 15 16 17
+         18 19 20 21 22 23 24 25 26 27 28 29 31 32  0  0  0
+          0  0  0  0  0  0  0  0  0  0  0  0  0  0  0  0  0
+          0  0  0  0  0  0  0  0  0  0  0  0  0  0  0  0  0
+          0  0  0  0  0  0  0  0  0  0  0  0  0  0  0  0  0
++         2  2  2  2  2  2  2  2  2  2  2  2  2  2  2  2  2
++         2  2  2  2  2  2  2  2  2  2  2  2  2  2  2  0  0
++         0  0  0  0  0  0  0  0  0  0  0  0  0  0  0  0  0
++         0  0  0  0  0  0  0  0  0  0  0  0  0  0  0  0  0
++         0  0  0  0  0  0  0  0  0  0  0  0  0  0  0  0  0
%c cc cc ccc ccc cccc cccc cccc cccc ccccc ccccc ccccc ccccc
%c cc cc ccc ccc cccc cccc cccc cccc ccccc ccccc ccccc ccccc
%f  0.0000000  0.000000000  0.00000000000  0.000000000000000
%f  0.0000000  0.000000000  0.00000000000  0.000000000000000
%i    0    0    0    0      0      0      0      0         0
%i    0    0    0    0      0      0      0      0         0
/*      NGA, ST. LOUIS,MO.                                  
/*   EPHEMERIS COMPUTED FROM  1 DAYS OF DATA
/*   EPOCHA SMOOTHER  
/* CCCCCCCCCCCCCCCCCCCCCCCCCCCCCCCCCCCCCCCCCCCCCCCCCCCCCCCCC
*  2013 11 20  9 25  0.00000000                                                 
P  1  11971.606537 -22101.754411  -8440.576118     95.743241                    
V  1   9178.069379  -6137.517021  29315.156732      0.031936                    
P  2 -20724.198343  10570.219229 -12099.852051    462.376476                    
V  2   7860.034168 -14304.286552 -25963.725999      0.021272                    
P  3  13353.400472  -7880.075159  21025.285411    288.685647                    
V  3  12779.010480  24985.333853   1391.479192      0.051848                    
P  4 -17236.386147  -3059.369377 -20344.448239      3.386796                    
V  4  15923.499036 -19531.296339 -10461.449038      0.004254                    
P  5 -23752.460901   3510.518050  11490.514662   -397.201814                    
V  5 -13781.286560  -5526.885132 -26556.394852      0.007512                    
P  6  16531.205351    427.219946  20904.491146    157.896912                    
V  6   9290.327213  24733.904170  -7485.496875      0.170707                    
P  7  -1167.063143 -18035.031529  19415.053766    282.730295                    
V  7  17733.222911 -17070.221182 -15154.602990      0.042075                    
P  8 -10816.616850  -9733.023600  22380.483683     10.015583                    
V  8  21076.855034 -18362.554786   1626.513124      0.002673                    
P  9 -11338.393368  -9044.506027  21726.141965    284.429751                    
V  9  19218.009850 -21459.859297    935.062823      0.028777                    
P 10 -24516.454005  -9541.384653  -5373.188803   -102.567136                    
V 10   6836.387711  -1403.126776 -30105.286187     -0.016472                    
P 11  12066.009676 -23418.793076   1694.814142   -439.576697                    
V 11   3665.940749   4660.437466  30129.352542     -0.033932                    
P 12  -8869.761615  12574.966601 -21665.474544    169.179519                    
V 12 -26433.836478  -7076.318533   6929.631568      0.022742                    
P 13  -4840.583741 -26015.327340  -1161.495132     57.992236                    
V 13   2555.864159    795.651376 -32221.751543     -0.038515                    
P 14  14335.469614  17037.003198 -14370.828463    210.134154                    
V 14   2715.154577  18433.460066  24057.112334     -0.010594                    
P 15  -6864.379096  18588.416087  17517.635115   -148.076240                    
V 15  -9753.828374 -20380.978222  18044.044772     -0.019493                    
P 16  23789.621305  -1843.942938  11994.515531   -241.294585                    
V 16  14228.020058   5290.875313 -27007.751442      0.011085                    
P 17 -14746.264898 -17245.680347 -13770.058714    -42.494541                    
V 17  -2968.643327 -17625.198001  24601.110223     -0.036386                    
P 18  12613.698241  16065.037064  17573.151966    285.960448                    
V 18 -21429.854362  -2437.259397  17709.489257      0.021108                    
P 19   9473.179023 -16202.280998  18499.481004   -419.855172                    
V 19   6953.508648  22912.376366  16817.818785     -0.026256                    
P 20   4395.875791 -15488.312889 -21305.162863    138.318988                    
V 20  26417.146045   4307.772028   2417.173019      0.029357                    
P 21   4995.305434  17018.737065  20230.237479   -329.355953                    
V 21 -17467.992031  17442.370127 -11177.991492     -0.017684                    
P 22  22527.041723  11387.636678   8699.293121    196.211098                    
V 22 -11273.206508   1183.076052  28139.751420      0.021113                    
P 23   1139.536533 -23626.978696 -11568.025401     28.567174                    
V 23   7267.075917  13429.486999 -26896.108277     -0.033493                    
P 24 -14939.933679  21504.846731  -4237.288291    -17.710395                    
V 24  -5749.111687   2121.321174  31120.359343     -0.007105                    
P 25   5875.624087  15585.085942 -20769.641662    168.151865                    
V 25 -25788.338095  -4552.162576 -10637.527501      0.031122                    
P 26 -13717.254823   5121.462156  21502.028101    244.290474                    
V 26  -6672.556281 -28053.500950   2659.109335     -0.102702                    
P 27  14759.440601  -3713.881094  21758.433504     -1.401726                    
V 27   8590.533681  26278.373746  -1322.964831     -0.033889                    
P 28 -19884.367683 -13639.849322  11919.187144    310.237164                    
V 28  13993.218412   2332.091123  27238.555279      0.030451                    
P 29   3118.058598  25809.974339  -5508.075688    488.485395                    
V 29  -4256.431809  -6125.813664 -30852.412839      0.030938                    
P 31  17874.017895    242.386134 -19571.552148    329.966423                    
V 31 -16585.659358  18834.775541 -14499.093510      0.006035                    
P 32  15666.980305  -9473.081542 -18955.549396   -527.204554                    
V 32  22918.417980   8806.263253  15009.101398      0.047366                    
EOF
